[{"OBJECT_NAME":"AFR-1","OBJECT_ID":"2023-084AJ","EPOCH":"2026-03-09T23:02:07.499328","MEAN_MOTION":15.27543824,"ECCENTRICITY":0.00099838,"INCLINATION":97.6099,"RA_OF_ASC_NODE":203.4313,"ARG_OF_PERICENTER":334.9676,"MEAN_ANOMALY":25.1077,"EPHEMERIS_TYPE":0,"CLASSIFICATION_TYPE":"U","NORAD_CAT_ID":56964,"ELEMENT_SET_NO":999,"REV_AT_EPOCH":15207,"BSTAR":0.00024843733,"MEAN_MOTION_DOT":6.624e-5,"MEAN_MOTION_DDOT":0},{"OBJECT_NAME":"STARLINK-30414","OBJECT_ID":"2023-141V","EPOCH":"2026-03-09T21:38:14.270784","MEAN_MOTION":15.30188631,"ECCENTRICITY":0.00011283,"INCLINATION":53.1588,"RA_OF_ASC_NODE":282.91,"ARG_OF_PERICENTER":111.6124,"MEAN_ANOMALY":248.4997,"EPHEMERIS_TYPE":0,"CLASSIFICATION_TYPE":"U","NORAD_CAT_ID":57859,"ELEMENT_SET_NO":999,"REV_AT_EPOCH":14036,"BSTAR":6.948816e-6,"MEAN_MOTION_DOT":-1.53e-6,"MEAN_MOTION_DDOT":0}]
